NORAD_CAT_ID,OBJECT_NAME,OBJECT_TYPE,EPOCH,MEAN_MOTION,ECCENTRICITY,INCLINATION,RA_OF_ASC_NODE,ARG_OF_PERICENTER,MEAN_ANOMALY,BSTAR,MEAN_MOTION_DOT,MEAN_MOTION_DDOT,TLE_LINE0,TLE_LINE1,TLE_LINE2,SEMIMAJOR_AXIS,PERIOD,APOGEE,PERIGEE,DECAYED
54088.0,STARLINK-5153,PAYLOAD,2024-06-15 18:23:43,15.08840558,0.0001295,53.2189,291.038,91.0601,269.054,5.7199e-05,6.23e-06,0.0,0 STARLINK-5153,1 54088U 22136AP  24167.76648058  .00000623  00000-0  57199-4 0  9999,2 54088  53.2189 291.0380 0001295  91.0601 269.0540 15.08840558 91585,6917.879,95.438,540.64,538.848,0.0
54088.0,STARLINK-5153,PAYLOAD,2024-06-16 13:28:21,15.08839586,0.0001572,53.2195,287.4792,107.2629,252.8535,6.1369e-05,6.89e-06,0.0,0 STARLINK-5153,1 54088U 22136AP  24168.56136143  .00000689  00000-0  61369-4 0  9991,2 54088  53.2195 287.4792 0001572 107.2629 252.8535 15.08839586 92175,6917.882,95.438,540.834,538.659,0.0
54088.0,STARLINK-5153,PAYLOAD,2024-06-16 15:03:44,15.08839185,0.0001491,53.2195,287.181,104.1179,255.9979,5.6326e-05,6.09e-06,0.0,0 STARLINK-5153,1 54088U 22136AP  24168.62760171  .00000609  00000-0  56326-4 0  9991,2 54088  53.2195 287.1810 0001491 104.1179 255.9979 15.08839185 91719,6917.883,95.438,540.779,538.716,0.0
54088.0,STARLINK-5153,PAYLOAD,2024-06-17 16:29:55,15.08831715,0.0001465,53.2165,282.4201,104.5313,255.5842,-0.00013363,-2.414e-05,0.0,0 STARLINK-5153,1 54088U 22136AP  24169.68744343 -.00002414  00000-0 -13363-3 0  9992,2 54088  53.2165 282.4201 0001465 104.5313 255.5842 15.08831715 91876,6917.906,95.438,540.784,538.757,0.0
54088.0,STARLINK-5153,PAYLOAD,2024-06-18 00:26:50,15.08838442,0.0001537,53.2175,280.9332,98.4931,261.6236,-2.3833e-05,-6.67e-06,0.0,0 STARLINK-5153,1 54088U 22136AP  24170.01864153 -.00000667  00000-0 -23833-4 0  9995,2 54088  53.2175 280.9332 0001537  98.4931 261.6236 15.08838442 92399,6917.885,95.438,540.813,538.687,0.0
54088.0,STARLINK-5153,PAYLOAD,2024-06-18 14:45:18,15.08841033,0.0001334,53.2175,278.2559,97.2021,262.9123,0.00017823,2.55e-05,0.0,0 STARLINK-5153,1 54088U 22136AP  24170.61480265  .00002550  00000-0  17823-3 0  9991,2 54088  53.2175 278.2559 0001334  97.2021 262.9123 15.08841033 92010,6917.877,95.437,540.665,538.819,0.0
54088.0,STARLINK-5153,PAYLOAD,2024-06-19 13:00:43,15.08838173,0.0001329,53.2178,274.0897,89.3894,270.725,0.00018468,2.652e-05,0.0,0 STARLINK-5153,1 54088U 22136AP  24171.54216584  .00002652  00000-0  18468-3 0  9994,2 54088  53.2178 274.0897 0001329  89.3894 270.7250 15.08838173 92622,6917.886,95.438,540.67,538.832,0.0
54088.0,STARLINK-5153,PAYLOAD,2024-06-19 14:36:06,15.0884003,0.0001336,53.2181,273.7926,86.5207,273.5938,0.00012212,1.656e-05,0.0,0 STARLINK-5153,1 54088U 22136AP  24171.60840543  .00001656  00000-0  12212-3 0  9993,2 54088  53.2181 273.7926 0001336  86.5207 273.5938 15.08840030 92168,6917.88,95.438,540.67,538.821,0.0
54088.0,STARLINK-5153,PAYLOAD,2024-06-20 12:51:30,15.08843166,0.0001368,53.2179,269.6306,91.644,268.4709,7.6468e-05,9.29e-06,0.0,0 STARLINK-5153,1 54088U 22136AP  24172.53576563  .00000929  00000-0  76468-4 0  9990,2 54088  53.2179 269.6306 0001368  91.6440 268.4709 15.08843166 92300,6917.871,95.437,540.682,538.789,0.0
54088.0,STARLINK-5153,PAYLOAD,2024-06-20 23:59:11,15.08846282,0.0001376,53.2181,267.5492,91.9972,268.1178,0.00014299,1.989e-05,0.0,0 STARLINK-5153,1 54088U 22136AP  24172.99944350  .00001989  00000-0  14299-3 0  9993,2 54088  53.2181 267.5492 0001376  91.9972 268.1178 15.08846282 92846,6917.861,95.437,540.678,538.774,0.0
54088.0,STARLINK-5153,PAYLOAD,2024-06-21 12:42:17,15.08837852,0.0001544,53.2189,265.171,97.6557,262.461,8.4264e-05,1.053e-05,0.0,0 STARLINK-5153,1 54088U 22136AP  24173.52936895  .00001053  00000-0  84264-4 0  9990,2 54088  53.2189 265.1710 0001544  97.6557 262.4610 15.08837852 92920,6917.887,95.438,540.82,538.684,0.0
54088.0,STARLINK-5153,PAYLOAD,2024-06-22 12:33:04,15.08840244,0.0001603,53.2193,260.7105,103.5339,256.5832,4.9559e-05,5.01e-06,0.0,0 STARLINK-5153,1 54088U 22136AP  24174.52296794  .00000501  00000-0  49559-4 0  9993,2 54088  53.2193 260.7105 0001603 103.5339 256.5832 15.08840244 92609,6917.88,95.438,540.854,538.636,0.0
54088.0,STARLINK-5153,PAYLOAD,2024-06-23 12:23:51,15.08837485,0.0001338,53.2177,256.2494,105.7884,254.3256,4.2716e-05,3.92e-06,0.0,0 STARLINK-5153,1 54088U 22136AP  24175.51656918  .00000392  00000-0  42716-4 0  9997,2 54088  53.2177 256.2494 0001338 105.7884 254.3256 15.08837485 93224,6917.888,95.438,540.679,538.827,0.0
54088.0,STARLINK-5153,PAYLOAD,2024-06-24 10:39:14,15.08851818,0.0001241,53.2172,252.0854,109.9967,250.1159,-0.00010882,-2.02e-05,0.0,0 STARLINK-5153,1 54088U 22136AP  24176.44392344 -.00002020  00000-0 -10882-3 0  9990,2 54088  53.2172 252.0854 0001241 109.9967 250.1159 15.08851818 93361,6917.844,95.437,540.568,538.851,0.0
54088.0,STARLINK-5153,PAYLOAD,2024-06-25 12:05:25,15.08835183,0.0001113,53.2162,247.3288,107.0362,253.0753,4.4241e-05,4.16e-06,0.0,0 STARLINK-5153,1 54088U 22136AP  24177.50377056  .00000416  00000-0  44241-4 0  9993,2 54088  53.2162 247.3288 0001113 107.0362 253.0753 15.08835183 93521,6917.895,95.438,540.53,538.99,0.0
54088.0,STARLINK-5153,PAYLOAD,2024-06-26 10:20:49,15.08840591,0.0001338,53.2164,243.1663,108.0328,252.0809,8.9832e-05,1.142e-05,0.0,0 STARLINK-5153,1 54088U 22136AP  24178.43112689  .00001142  00000-0  89832-4 0  9997,2 54088  53.2164 243.1663 0001338 108.0328 252.0809 15.08840591 93199,6917.879,95.438,540.669,538.818,0.0
54088.0,STARLINK-5153,PAYLOAD,2024-06-27 11:46:59,15.08840216,0.0001297,53.2159,238.4098,84.1787,275.9353,9.145e-05,1.168e-05,0.0,0 STARLINK-5153,1 54088U 22136AP  24179.49096930  .00001168  00000-0  91450-4 0  9991,2 54088  53.2159 238.4098 0001297  84.1787 275.9353 15.08840216 93821,6917.88,95.438,540.642,538.847,0.0
54088.0,STARLINK-5153,PAYLOAD,2024-06-28 11:37:46,15.08846239,0.0001366,53.2153,233.9482,85.079,275.0358,8.4509e-05,1.058e-05,0.0,0 STARLINK-5153,1 54088U 22136AP  24180.48456611  .00001058  00000-0  84509-4 0  9993,2 54088  53.2153 233.9482 0001366  85.0790 275.0358 15.08846239 93505,6917.861,95.437,540.671,538.781,0.0
54088.0,STARLINK-5153,PAYLOAD,2024-06-29 13:03:57,15.08816594,0.0001361,53.215,229.189,88.5511,271.5637,0.00030804,4.615e-05,0.0,0 STARLINK-5153,1 54088U 22136AP  24181.54441763  .00004615  00000-0  30804-3 0  9993,2 54088  53.2150 229.1890 0001361  88.5511 271.5637 15.08816594 94138,6917.952,95.439,540.758,538.875,0.0
54088.0,STARLINK-5153,PAYLOAD,2024-06-30 12:54:44,15.08835179,0.0001426,53.2166,224.727,94.3326,265.7829,-2.2515e-05,-6.46e-06,0.0,0 STARLINK-5153,1 54088U 22136AP  24182.53801703 -.00000646  00000-0 -22515-4 0  9990,2 54088  53.2166 224.7270 0001426  94.3326 265.7829 15.08835179 94283,6917.895,95.438,540.747,538.774,0.0
54088.0,STARLINK-5153,PAYLOAD,2024-07-01 09:34:45,15.08837226,0.0001296,53.2155,220.8632,97.0261,263.0879,8.7202e-05,1.1e-05,0.0,0 STARLINK-5153,1 54088U 22136AP  24183.39913395  .00001100  00000-0  87202-4 0  9994,2 54088  53.2155 220.8632 0001296  97.0261 263.0879 15.08837226 93946,6917.889,95.438,540.65,538.857,0.0
54088.0,STARLINK-5153,PAYLOAD,2024-07-01 19:07:03,15.08841148,0.0001318,53.2158,219.079,96.4675,263.6467,0.00011513,1.545e-05,0.0,0 STARLINK-5153,1 54088U 22136AP  24183.79657101  .00001545  00000-0  11513-3 0  9992,2 54088  53.2158 219.0790 0001318  96.4675 263.6467 15.08841148 94477,6917.877,95.437,540.654,538.83,0.0
54088.0,STARLINK-5153,PAYLOAD,2024-07-02 03:03:59,15.08834393,0.0001628,53.2184,217.5959,107.1193,252.9977,9.3462e-05,1.2e-05,0.0,0 STARLINK-5153,1 54088U 22136AP  24184.12777708  .00001200  00000-0  93462-4 0  9998,2 54088  53.2184 217.5959 0001628 107.1193 252.9977 15.08834393 94522,6917.898,95.438,540.889,538.636,0.0
54088.0,STARLINK-5153,PAYLOAD,2024-07-02 09:25:32,15.0883283,0.000146,53.2177,216.4056,101.2837,258.832,4.1881e-05,3.79e-06,0.0,0 STARLINK-5153,1 54088U 22136AP  24184.39274110  .00000379  00000-0  41881-4 0  9990,2 54088  53.2177 216.4056 0001460 101.2837 258.8320 15.08832830 94097,6917.902,95.438,540.777,538.757,0.0
54088.0,STARLINK-5153,PAYLOAD,2024-07-02 18:57:51,15.08838171,0.000137,53.2161,214.6198,94.6621,265.4527,5.1717e-05,5.35e-06,0.0,0 STARLINK-5153,1 54088U 22136AP  24184.79017784  .00000535  00000-0  51717-4 0  9999,2 54088  53.2161 214.6198 0001370  94.6621 265.4527 15.08838171 94157,6917.886,95.438,540.699,538.803,0.0
54088.0,STARLINK-5153,PAYLOAD,2024-07-03 10:51:42,15.08838025,0.0001382,53.2165,211.6464,93.5832,266.5318,3.3995e-05,2.53e-06,0.0,0 STARLINK-5153,1 54088U 22136AP  24185.45257961  .00000253  00000-0  33995-4 0  9991,2 54088  53.2165 211.6464 0001382  93.5832 266.5318 15.08838025 94720,6917.886,95.438,540.707,538.795,0.0
54088.0,STARLINK-5153,PAYLOAD,2024-07-03 18:48:38,15.08841907,0.0001355,53.2163,210.1589,88.2754,271.8393,4.859e-05,4.86e-06,0.0,0 STARLINK-5153,1 54088U 22136AP  24185.78377657  .00000486  00000-0  48590-4 0  9997,2 54088  53.2163 210.1589 0001355  88.2754 271.8393 15.08841907 94303,6917.875,95.437,540.677,538.802,0.0
54088.0,STARLINK-5153,PAYLOAD,2024-07-04 07:31:43,15.08836893,0.0001374,53.2163,207.7796,85.2005,274.9144,3.7641e-05,3.11e-06,0.0,0 STARLINK-5153,1 54088U 22136AP  24186.31370072  .00000311  00000-0  37641-4 0  9993,2 54088  53.2163 207.7796 0001374  85.2005 274.9144 15.08836893 94386,6917.89,95.438,540.705,538.804,0.0
54088.0,STARLINK-5153,PAYLOAD,2024-07-04 18:39:25,15.08841235,0.0001411,53.2167,205.6984,84.9124,275.2029,5.5812e-05,6e-06,0.0,0 STARLINK-5153,1 54088U 22136AP  24186.77737745  .00000600  00000-0  55812-4 0  9998,2 54088  53.2167 205.6984 0001411  84.9124 275.2029 15.08841235 94928,6917.877,95.437,540.718,538.766,0.0
54088.0,STARLINK-5153,PAYLOAD,2024-07-05 10:33:16,15.08843504,0.0001353,53.2162,202.7246,86.7236,273.3911,6.3924e-05,7.3e-06,0.0,0 STARLINK-5153,1 54088U 22136AP  24187.43977529  .00000730  00000-0  63924-4 0  9995,2 54088  53.2162 202.7246 0001353  86.7236 273.3911 15.08843504 94550,6917.87,95.437,540.671,538.799,0.0
